0 SL-16 DEB
1 22456U 92093EV  13281.81141593  .00002979  00000-0  15765-2 0  3952
2 22456 071.2744 183.9534 0136873 135.5606 282.6497 14.09774571 54825
0 SL-16 DEB
1 22456U 92093EV  13283.87354123  .00003583  00000-0  18907-2 0  3969
2 22456 071.2743 179.7183 0136944 132.2575 308.4846 14.09792799 55115
0 SL-16 DEB
1 22456U 92093EV  13286.15199429  .00003439  00000-0  18146-2 0  3975
2 22456 071.2747 175.0397 0137055 128.6342 352.3327 14.09803597 55436
0 SL-16 DEB
1 22456U 92093EV  13289.13188395  .00004922  00000-0  25858-2 0  3983
2 22456 071.2743 168.9200 0137100 123.9003 356.3649 14.09825877 55851
0 SL-16 DEB
1 22456U 92093EV  13292.03886078  .00004009  00000-0  21093-2 0  3993
2 22456 071.2737 162.9492 0137174 119.2430 350.6164 14.09847259 56267
0 SL-16 DEB
1 22456U 92093EV  13294.65572980  .00004936  00000-0  25907-2 0  4007
2 22456 071.2734 157.5737 0137249 115.0859 312.5930 14.09866642 56634
